ONEWEB-0170             
1 48067U 21025AB  26057.24251204  .00000359  00000+0  94786-3 0  9998
2 48067  87.9040 342.2847 0001500  93.5968 266.5333 13.13468817238981
ONEWEB-0168             
1 48068U 21025AC  26057.22727890  .00000204  00000+0  52295-3 0  9994
2 48068  87.9041 342.2791 0002130  75.4278 284.7087 13.13469624238990
ONEWEB-0173             
1 48069U 21025AD  26057.21881665 -.00000017  00000+0 -81681-4 0  9991
2 48069  87.9045 342.2871 0002098  85.3476 274.7893 13.13469457239233
ONEWEB-0171             
1 48070U 21025AE  26057.25604719  .00000064  00000+0  13968-3 0  9992
2 48070  87.9041 342.2925 0001776  81.6923 278.4408 13.13471398239059
ONEWEB-0172             
1 48071U 21025AF  26057.23574447  .00000336  00000+0  88570-3 0  9998
2 48071  87.9037 342.2843 0001891  84.4456 275.6889 13.13468771239945
ONEWEB-0174             
1 48072U 21025AG  26057.21711656 -.00000077  00000+0 -24475-3 0  9990
2 48072  87.9035 342.2891 0001890  75.3553 284.7785 13.13469182239261
ONEWEB-0175             
1 48073U 21025AH  26057.24759182  .00000258  00000+0  67165-3 0  9992
2 48073  87.9047 342.2578 0001712  89.8255 270.3071 13.13467940238920
ONEWEB-0177             
1 48074U 21025AJ  26057.25943510  .00000052  00000+0  10691-3 0  9998
2 48074  87.9050 342.2764 0001988  77.6394 282.4957 13.13468652239116
ONEWEB-0178             
1 48075U 21025AK  26057.27819869 -.00000257  00000+0 -73866-3 0  9992
2 48075  87.9026 342.3024 0001926  85.6610 274.4740 13.13468977239168
ONEWEB-0108             
1 48076U 21025AL  26057.23743101  .00000359  00000+0  94751-3 0  9991
2 48076  87.9044 342.2693 0001684  71.8103 288.3209 13.13468492239082
ONEWEB-0169             
1 48077U 21025AM  26057.26958510 -.00000249  00000+0 -71660-3 0  9991
2 48077  87.9039 342.2794 0001694  72.5314 287.6000 13.13468354237741
ONEWEB-0176             
1 48210U 21031A   26057.19924750 -.00000179  00000+0 -51859-3 0  9998
2 48210  87.9014 311.8385 0001697  82.0130 278.1192 13.14500901233734
ONEWEB-0184             
1 48211U 21031B   26057.24840837  .00000083  00000+0  19035-3 0  9990
2 48211  87.9017 311.8197 0001882 106.9740 253.1596 13.14501484233714
ONEWEB-0179             
1 48212U 21031C   26057.21907811  .00000176  00000+0  43947-3 0  9996
2 48212  87.9008 311.8285 0001971  75.9782 284.1567 13.14501754233759
ONEWEB-0180             
1 48213U 21031D   26057.25158026 -.00000003  00000+0 -43106-4 0  9996
2 48213  87.9011 311.8230 0001982  84.0709 276.0647 13.14501478233646
ONEWEB-0218             
1 48214U 21031E   26057.19766569 -.00000180  00000+0 -51914-3 0  9998
2 48214  87.9007 311.8331 0002166 103.2809 256.8563 13.14501367233790
