[{"OBJECT_NAME":"ONEWEB-0170","OBJECT_ID":"2021-025AB","EPOCH":"2026-02-26T05:49:13.040256","MEAN_MOTION":13.13468817,"ECCENTRICITY":0.00015007,"INCLINATION":87.904,"RA_OF_ASC_NODE":342.2847,"ARG_OF_PERICENTER":93.5968,"MEAN_ANOMALY":266.5333,"EPHEMERIS_TYPE":0,"CLASSIFICATION_TYPE":"U","NORAD_CAT_ID":48067,"ELEMENT_SET_NO":999,"REV_AT_EPOCH":23898,"BSTAR":0.00094785626,"MEAN_MOTION_DOT":3.59e-6,"MEAN_MOTION_DDOT":0},{"OBJECT_NAME":"ONEWEB-0168","OBJECT_ID":"2021-025AC","EPOCH":"2026-02-26T05:27:16.896960","MEAN_MOTION":13.13469624,"ECCENTRICITY":0.00021301,"INCLINATION":87.9041,"RA_OF_ASC_NODE":342.2791,"ARG_OF_PERICENTER":75.4278,"MEAN_ANOMALY":284.7087,"EPHEMERIS_TYPE":0,"CLASSIFICATION_TYPE":"U","NORAD_CAT_ID":48068,"ELEMENT_SET_NO":999,"REV_AT_EPOCH":23899,"BSTAR":0.00052294958,"MEAN_MOTION_DOT":2.04e-6,"MEAN_MOTION_DDOT":0},{"OBJECT_NAME":"ONEWEB-0173","OBJECT_ID":"2021-025AD","EPOCH":"2026-02-26T05:15:05.758560","MEAN_MOTION":13.13469457,"ECCENTRICITY":0.00020984,"INCLINATION":87.9045,"RA_OF_ASC_NODE":342.2871,"ARG_OF_PERICENTER":85.3476,"MEAN_ANOMALY":274.7893,"EPHEMERIS_TYPE":0,"CLASSIFICATION_TYPE":"U","NORAD_CAT_ID":48069,"ELEMENT_SET_NO":999,"REV_AT_EPOCH":23923,"BSTAR":-8.1681303e-5,"MEAN_MOTION_DOT":-1.7e-7,"MEAN_MOTION_DDOT":0},{"OBJECT_NAME":"ONEWEB-0171","OBJECT_ID":"2021-025AE","EPOCH":"2026-02-26T06:08:42.477216","MEAN_MOTION":13.13471398,"ECCENTRICITY":0.00017767,"INCLINATION":87.9041,"RA_OF_ASC_NODE":342.2925,"ARG_OF_PERICENTER":81.6923,"MEAN_ANOMALY":278.4408,"EPHEMERIS_TYPE":0,"CLASSIFICATION_TYPE":"U","NORAD_CAT_ID":48070,"ELEMENT_SET_NO":999,"REV_AT_EPOCH":23905,"BSTAR":0.00013968498,"MEAN_MOTION_DOT":6.4e-7,"MEAN_MOTION_DDOT":0},{"OBJECT_NAME":"ONEWEB-0172","OBJECT_ID":"2021-025AF","EPOCH":"2026-02-26T05:39:28.322208","MEAN_MOTION":13.13468771,"ECCENTRICITY":0.00018913,"INCLINATION":87.9037,"RA_OF_ASC_NODE":342.2843,"ARG_OF_PERICENTER":84.4456,"MEAN_ANOMALY":275.6889,"EPHEMERIS_TYPE":0,"CLASSIFICATION_TYPE":"U","NORAD_CAT_ID":48071,"ELEMENT_SET_NO":999,"REV_AT_EPOCH":23994,"BSTAR":0.00088569555,"MEAN_MOTION_DOT":3.36e-6,"MEAN_MOTION_DDOT":0},{"OBJECT_NAME":"ONEWEB-0174","OBJECT_ID":"2021-025AG","EPOCH":"2026-02-26T05:12:38.870784","MEAN_MOTION":13.13469182,"ECCENTRICITY":0.00018902,"INCLINATION":87.9035,"RA_OF_ASC_NODE":342.2891,"ARG_OF_PERICENTER":75.3553,"MEAN_ANOMALY":284.7785,"EPHEMERIS_TYPE":0,"CLASSIFICATION_TYPE":"U","NORAD_CAT_ID":48072,"ELEMENT_SET_NO":999,"REV_AT_EPOCH":23926,"BSTAR":-0.0002447455,"MEAN_MOTION_DOT":-7.7e-7,"MEAN_MOTION_DDOT":0},{"OBJECT_NAME":"ONEWEB-0175","OBJECT_ID":"2021-025AH","EPOCH":"2026-02-26T05:56:31.933248","MEAN_MOTION":13.1346794,"ECCENTRICITY":0.00017129,"INCLINATION":87.9047,"RA_OF_ASC_NODE":342.2578,"ARG_OF_PERICENTER":89.8255,"MEAN_ANOMALY":270.3071,"EPHEMERIS_TYPE":0,"CLASSIFICATION_TYPE":"U","NORAD_CAT_ID":48073,"ELEMENT_SET_NO":999,"REV_AT_EPOCH":23892,"BSTAR":0.00067164834,"MEAN_MOTION_DOT":2.58e-6,"MEAN_MOTION_DDOT":0},{"OBJECT_NAME":"ONEWEB-0177","OBJECT_ID":"2021-025AJ","EPOCH":"2026-02-26T06:13:35.192640","MEAN_MOTION":13.13468652,"ECCENTRICITY":0.00019882,"INCLINATION":87.905,"RA_OF_ASC_NODE":342.2764,"ARG_OF_PERICENTER":77.6394,"MEAN_ANOMALY":282.4957,"EPHEMERIS_TYPE":0,"CLASSIFICATION_TYPE":"U","NORAD_CAT_ID":48074,"ELEMENT_SET_NO":999,"REV_AT_EPOCH":23911,"BSTAR":0.00010690559,"MEAN_MOTION_DOT":5.2e-7,"MEAN_MOTION_DDOT":0},{"OBJECT_NAME":"ONEWEB-0178","OBJECT_ID":"2021-025AK","EPOCH":"2026-02-26T06:40:36.366816","MEAN_MOTION":13.13468977,"ECCENTRICITY":0.00019265,"INCLINATION":87.9026,"RA_OF_ASC_NODE":342.3024,"ARG_OF_PERICENTER":85.661,"MEAN_ANOMALY":274.474,"EPHEMERIS_TYPE":0,"CLASSIFICATION_TYPE":"U","NORAD_CAT_ID":48075,"ELEMENT_SET_NO":999,"REV_AT_EPOCH":23916,"BSTAR":-0.0007386563,"MEAN_MOTION_DOT":-2.57e-6,"MEAN_MOTION_DDOT":0},{"OBJECT_NAME":"ONEWEB-0108","OBJECT_ID":"2021-025AL","EPOCH":"2026-02-26T05:41:54.039264","MEAN_MOTION":13.13468492,"ECCENTRICITY":0.00016849,"INCLINATION":87.9044,"RA_OF_ASC_NODE":342.2693,"ARG_OF_PERICENTER":71.8103,"MEAN_ANOMALY":288.3209,"EPHEMERIS_TYPE":0,"CLASSIFICATION_TYPE":"U","NORAD_CAT_ID":48076,"ELEMENT_SET_NO":999,"REV_AT_EPOCH":23908,"BSTAR":0.00094751191,"MEAN_MOTION_DOT":3.59e-6,"MEAN_MOTION_DDOT":0},{"OBJECT_NAME":"ONEWEB-0169","OBJECT_ID":"2021-025AM","EPOCH":"2026-02-26T06:28:12.152640","MEAN_MOTION":13.13468354,"ECCENTRICITY":0.00016946,"INCLINATION":87.9039,"RA_OF_ASC_NODE":342.2794,"ARG_OF_PERICENTER":72.5314,"MEAN_ANOMALY":287.6,"EPHEMERIS_TYPE":0,"CLASSIFICATION_TYPE":"U","NORAD_CAT_ID":48077,"ELEMENT_SET_NO":999,"REV_AT_EPOCH":23774,"BSTAR":-0.00071660283,"MEAN_MOTION_DOT":-2.49e-6,"MEAN_MOTION_DDOT":0},{"OBJECT_NAME":"ONEWEB-0176","OBJECT_ID":"2021-031A","EPOCH":"2026-02-26T04:46:54.984000","MEAN_MOTION":13.14500901,"ECCENTRICITY":0.0001697,"INCLINATION":87.9014,"RA_OF_ASC_NODE":311.8385,"ARG_OF_PERICENTER":82.013,"MEAN_ANOMALY":278.1192,"EPHEMERIS_TYPE":0,"CLASSIFICATION_TYPE":"U","NORAD_CAT_ID":48210,"ELEMENT_SET_NO":999,"REV_AT_EPOCH":23373,"BSTAR":-0.00051858553,"MEAN_MOTION_DOT":-1.79e-6,"MEAN_MOTION_DDOT":0},{"OBJECT_NAME":"ONEWEB-0184","OBJECT_ID":"2021-031B","EPOCH":"2026-02-26T05:57:42.483168","MEAN_MOTION":13.14501484,"ECCENTRICITY":0.00018825,"INCLINATION":87.9017,"RA_OF_ASC_NODE":311.8197,"ARG_OF_PERICENTER":106.974,"MEAN_ANOMALY":253.1596,"EPHEMERIS_TYPE":0,"CLASSIFICATION_TYPE":"U","NORAD_CAT_ID":48211,"ELEMENT_SET_NO":999,"REV_AT_EPOCH":23371,"BSTAR":0.00019034917,"MEAN_MOTION_DOT":8.3e-7,"MEAN_MOTION_DDOT":0},{"OBJECT_NAME":"ONEWEB-0179","OBJECT_ID":"2021-031C","EPOCH":"2026-02-26T05:15:28.348704","MEAN_MOTION":13.14501754,"ECCENTRICITY":0.00019712,"INCLINATION":87.9008,"RA_OF_ASC_NODE":311.8285,"ARG_OF_PERICENTER":75.9782,"MEAN_ANOMALY":284.1567,"EPHEMERIS_TYPE":0,"CLASSIFICATION_TYPE":"U","NORAD_CAT_ID":48212,"ELEMENT_SET_NO":999,"REV_AT_EPOCH":23375,"BSTAR":0.00043947101,"MEAN_MOTION_DOT":1.76e-6,"MEAN_MOTION_DDOT":0},{"OBJECT_NAME":"ONEWEB-0180","OBJECT_ID":"2021-031D","EPOCH":"2026-02-26T06:02:16.534464","MEAN_MOTION":13.14501478,"ECCENTRICITY":0.00019826,"INCLINATION":87.9011,"RA_OF_ASC_NODE":311.823,"ARG_OF_PERICENTER":84.0709,"MEAN_ANOMALY":276.0647,"EPHEMERIS_TYPE":0,"CLASSIFICATION_TYPE":"U","NORAD_CAT_ID":48213,"ELEMENT_SET_NO":999,"REV_AT_EPOCH":23364,"BSTAR":-4.3105552e-5,"MEAN_MOTION_DOT":-3.0e-8,"MEAN_MOTION_DDOT":0},{"OBJECT_NAME":"ONEWEB-0218","OBJECT_ID":"2021-031E","EPOCH":"2026-02-26T04:44:38.315616","MEAN_MOTION":13.14501367,"ECCENTRICITY":0.00021661,"INCLINATION":87.9007,"RA_OF_ASC_NODE":311.8331,"ARG_OF_PERICENTER":103.2809,"MEAN_ANOMALY":256.8563,"EPHEMERIS_TYPE":0,"CLASSIFICATION_TYPE":"U","NORAD_CAT_ID":48214,"ELEMENT_SET_NO":999,"REV_AT_EPOCH":23379,"BSTAR":-0.00051914084,"MEAN_MOTION_DOT":-1.8e-6,"MEAN_MOTION_DDOT":0}]
